55825,ONEWEB-0665,2023,109.55,148.0,+,87.9,Active,1,LEO,USA,UK,Commercial,Communications,Falcon,1 55825U 23029AF  24177.25729919  .00000148  00000+0  36513-3 0  9999,2 55825  87.8966  73.3489 0002288  79.2611 280.8776 13.14504895 64560,13.14504895,0.0002288,LEO
55826,ONEWEB-0666,2023,109.03,148.0,+,87.92,Active,1,LEO,USA,UK,Commercial,Communications,Falcon,1 55826U 23029AG  24177.60171008 -.00000316  00000+0 -80968-3 0  9991,2 55826  87.9209  58.0408 0001445  87.9265 272.2034 13.20771367 65906,13.20771367,0.0001445,LEO
55827,ONEWEB-0667,2023,109.03,148.0,+,87.92,Active,1,LEO,USA,UK,Commercial,Communications,Falcon,1 55827U 23029AH  24177.21663171  .00000100  00000+0  21483-3 0  9992,2 55827  87.9210  58.0508 0002183  85.2741 274.8641 13.20773142 65848,13.20773142,0.0002183,LEO
55828,ONEWEB-0669,2023,109.03,148.0,+,87.92,Active,1,LEO,USA,UK,Commercial,Communications,Falcon,1 55828U 23029AJ  24177.59067545 -.00000014  00000+0 -66834-4 0  9993,2 55828  87.9209  58.0140 0001730 105.3501 254.7823 13.20770764 65895,13.20770764,0.000173,LEO
55829,ONEWEB-0670,2023,109.55,148.0,+,87.9,Active,1,LEO,USA,UK,Commercial,Communications,Falcon,1 55829U 23029AK  24177.61569663  .00000236  00000+0  60303-3 0  9993,2 55829  87.8968  73.2838 0002359  83.2116 276.9282 13.14502320 64634,13.1450232,0.0002359,LEO
55830,ONEWEB-0671,2023,109.11,148.0,+,87.92,Active,1,LEO,USA,UK,Commercial,Communications,Falcon,1 55830U 23029AL  24177.28762849 -.00000360  00000+0 -93122-3 0  9994,2 55830  87.9154  88.6340 0002293  85.8271 274.3124 13.19725244 63687,13.19725244,0.0002293,LEO
55831,ONEWEB-0672,2023,109.03,-1.0,+,87.92,Active,0,LEO,USA,UK,Unknown,Unknown,Unknown,1 55831U 23029AM  24177.20715176  .00000053  00000+0  98031-4 0  9990,2 55831  87.9210  58.0741 0001532  82.6067 277.5241 13.20773080 65848,13.2077308,0.0001532,LEO
55832,ONEWEB-0673,2023,109.11,-1.0,+,87.92,Active,0,LEO,USA,UK,Unknown,Unknown,Unknown,1 55832U 23029AN  24177.26394188  .00000123  00000+0  27601-3 0  9995,2 55832  87.9153  88.6055 0002290  78.3279 281.8110 13.19727023 63688,13.19727023,0.000229,LEO
